{"fetched_at":"2026-07-12T05:52:59.334Z","source":"https://celestrak.org/NORAD/elements/gp.php?NAME=ICEYE&FORMAT=JSON","constellation":"iceye","records":[{"OBJECT_NAME":"ICEYE-X65","OBJECT_ID":"2025-248H","EPOCH":"2026-07-11T11:07:06.762144","CLASSIFICATION_TYPE":"U","MEAN_MOTION":15.07914187,"ECCENTRICITY":0.0005075,"INCLINATION":45.4056,"RA_OF_ASC_NODE":6.5249,"ARG_OF_PERICENTER":178.5768,"MEAN_ANOMALY":181.5129,"EPHEMERIS_TYPE":0,"NORAD_CAT_ID":66300,"ELEMENT_SET_NO":999,"REV_AT_EPOCH":3918,"BSTAR":0.00013374653,"MEAN_MOTION_DOT":0.00001837,"MEAN_MOTION_DDOT":0},{"OBJECT_NAME":"ICEYE-X66","OBJECT_ID":"2025-248J","EPOCH":"2026-07-11T11:08:14.739936","CLASSIFICATION_TYPE":"U","MEAN_MOTION":15.09161562,"ECCENTRICITY":0.00047574,"INCLINATION":45.4022,"RA_OF_ASC_NODE":5.6409,"ARG_OF_PERICENTER":175.1099,"MEAN_ANOMALY":184.983,"EPHEMERIS_TYPE":0,"NORAD_CAT_ID":66301,"ELEMENT_SET_NO":999,"REV_AT_EPOCH":3917,"BSTAR":0.00013242234,"MEAN_MOTION_DOT":0.00001885,"MEAN_MOTION_DDOT":0},{"OBJECT_NAME":"ICEYE-X67","OBJECT_ID":"2025-248K","EPOCH":"2026-07-11T11:43:43.807872","CLASSIFICATION_TYPE":"U","MEAN_MOTION":15.09144459,"ECCENTRICITY":0.00063359,"INCLINATION":45.4059,"RA_OF_ASC_NODE":5.0878,"ARG_OF_PERICENTER":175.2085,"MEAN_ANOMALY":184.8859,"EPHEMERIS_TYPE":0,"NORAD_CAT_ID":66302,"ELEMENT_SET_NO":999,"REV_AT_EPOCH":3919,"BSTAR":0.00014737804,"MEAN_MOTION_DOT":0.00002125,"MEAN_MOTION_DDOT":0},{"OBJECT_NAME":"ICEYE-X58","OBJECT_ID":"2025-276CP","EPOCH":"2026-07-11T17:14:21.490656","CLASSIFICATION_TYPE":"U","MEAN_MOTION":15.17296564,"ECCENTRICITY":0.0001935,"INCLINATION":97.4198,"RA_OF_ASC_NODE":265.6682,"ARG_OF_PERICENTER":232.1195,"MEAN_ANOMALY":127.9863,"EPHEMERIS_TYPE":0,"NORAD_CAT_ID":66751,"ELEMENT_SET_NO":999,"REV_AT_EPOCH":3413,"BSTAR":0.000077252,"MEAN_MOTION_DOT":0.00001473,"MEAN_MOTION_DDOT":0},{"OBJECT_NAME":"ICEYE-X59","OBJECT_ID":"2025-276CQ","EPOCH":"2026-07-11T17:53:17.955744","CLASSIFICATION_TYPE":"U","MEAN_MOTION":15.00733485,"ECCENTRICITY":0.0000713,"INCLINATION":97.4383,"RA_OF_ASC_NODE":262.9933,"ARG_OF_PERICENTER":139.5292,"MEAN_ANOMALY":220.5986,"EPHEMERIS_TYPE":0,"NORAD_CAT_ID":66752,"ELEMENT_SET_NO":999,"REV_AT_EPOCH":3395,"BSTAR":0.000232,"MEAN_MOTION_DOT":0.00002884,"MEAN_MOTION_DDOT":0},{"OBJECT_NAME":"ICEYE-X60","OBJECT_ID":"2025-276CR","EPOCH":"2026-07-10T15:08:01.678272","CLASSIFICATION_TYPE":"U","MEAN_MOTION":15.11381751,"ECCENTRICITY":0.00008944,"INCLINATION":97.4184,"RA_OF_ASC_NODE":263.6173,"ARG_OF_PERICENTER":208.4786,"MEAN_ANOMALY":151.6396,"EPHEMERIS_TYPE":0,"NORAD_CAT_ID":66753,"ELEMENT_SET_NO":999,"REV_AT_EPOCH":3390,"BSTAR":0.00018050428,"MEAN_MOTION_DOT":0.00002984,"MEAN_MOTION_DDOT":0},{"OBJECT_NAME":"ICEYE-X62","OBJECT_ID":"2025-276CT","EPOCH":"2026-07-11T17:07:24.292704","CLASSIFICATION_TYPE":"U","MEAN_MOTION":15.10123546,"ECCENTRICITY":0.0000715,"INCLINATION":97.4194,"RA_OF_ASC_NODE":264.1537,"ARG_OF_PERICENTER":289.1467,"MEAN_ANOMALY":70.9685,"EPHEMERIS_TYPE":0,"NORAD_CAT_ID":66755,"ELEMENT_SET_NO":999,"REV_AT_EPOCH":3403,"BSTAR":0.000063694,"MEAN_MOTION_DOT":0.00000977,"MEAN_MOTION_DDOT":0},{"OBJECT_NAME":"ICEYE-X63","OBJECT_ID":"2026-004K","EPOCH":"2026-07-11T13:17:36.220416","CLASSIFICATION_TYPE":"U","MEAN_MOTION":14.88344814,"ECCENTRICITY":0.0005577,"INCLINATION":97.8011,"RA_OF_ASC_NODE":190.8132,"ARG_OF_PERICENTER":60.667,"MEAN_ANOMALY":299.5104,"EPHEMERIS_TYPE":0,"NORAD_CAT_ID":67372,"ELEMENT_SET_NO":999,"REV_AT_EPOCH":2692,"BSTAR":0.000064824,"MEAN_MOTION_DOT":0.00000546,"MEAN_MOTION_DDOT":0},{"OBJECT_NAME":"ICEYE-X64","OBJECT_ID":"2026-004L","EPOCH":"2026-07-11T20:53:48.626016","CLASSIFICATION_TYPE":"U","MEAN_MOTION":14.87982511,"ECCENTRICITY":0.0007409,"INCLINATION":97.8025,"RA_OF_ASC_NODE":191.0457,"ARG_OF_PERICENTER":62.8027,"MEAN_ANOMALY":297.3944,"EPHEMERIS_TYPE":0,"NORAD_CAT_ID":67373,"ELEMENT_SET_NO":999,"REV_AT_EPOCH":2696,"BSTAR":0.000086276,"MEAN_MOTION_DOT":0.00000737,"MEAN_MOTION_DDOT":0},{"OBJECT_NAME":"ICEYE-X71","OBJECT_ID":"2026-067CG","EPOCH":"2026-07-11T21:07:50.866176","CLASSIFICATION_TYPE":"U","MEAN_MOTION":14.91783436,"ECCENTRICITY":0.0001322,"INCLINATION":97.7624,"RA_OF_ASC_NODE":150.7381,"ARG_OF_PERICENTER":359.6032,"MEAN_ANOMALY":0.5185,"EPHEMERIS_TYPE":0,"NORAD_CAT_ID":68494,"ELEMENT_SET_NO":999,"REV_AT_EPOCH":1540,"BSTAR":0.00014314,"MEAN_MOTION_DOT":0.00001387,"MEAN_MOTION_DDOT":0},{"OBJECT_NAME":"ICEYE-X75","OBJECT_ID":"2026-067CK","EPOCH":"2026-07-11T20:18:51.221088","CLASSIFICATION_TYPE":"U","MEAN_MOTION":14.92170116,"ECCENTRICITY":0.0001124,"INCLINATION":97.7604,"RA_OF_ASC_NODE":150.7565,"ARG_OF_PERICENTER":150.4431,"MEAN_ANOMALY":209.6851,"EPHEMERIS_TYPE":0,"NORAD_CAT_ID":68497,"ELEMENT_SET_NO":999,"REV_AT_EPOCH":1540,"BSTAR":0.000063847,"MEAN_MOTION_DOT":0.00000594,"MEAN_MOTION_DDOT":0},{"OBJECT_NAME":"ICEYE-X74","OBJECT_ID":"2026-067CN","EPOCH":"2026-07-11T21:06:36.157824","CLASSIFICATION_TYPE":"U","MEAN_MOTION":14.9178346,"ECCENTRICITY":0.0001118,"INCLINATION":97.7631,"RA_OF_ASC_NODE":150.7473,"ARG_OF_PERICENTER":357.1783,"MEAN_ANOMALY":2.943,"EPHEMERIS_TYPE":0,"NORAD_CAT_ID":68500,"ELEMENT_SET_NO":999,"REV_AT_EPOCH":1540,"BSTAR":0.00013778,"MEAN_MOTION_DOT":0.00001333,"MEAN_MOTION_DDOT":0},{"OBJECT_NAME":"ICEYE-X76","OBJECT_ID":"2026-067CQ","EPOCH":"2026-07-11T21:00:33.441984","CLASSIFICATION_TYPE":"U","MEAN_MOTION":14.91746627,"ECCENTRICITY":0.0000814,"INCLINATION":97.7639,"RA_OF_ASC_NODE":150.761,"ARG_OF_PERICENTER":341.056,"MEAN_ANOMALY":19.0629,"EPHEMERIS_TYPE":0,"NORAD_CAT_ID":68502,"ELEMENT_SET_NO":999,"REV_AT_EPOCH":1540,"BSTAR":0.000050998,"MEAN_MOTION_DOT":0.00000458,"MEAN_MOTION_DDOT":0}]}
